[
    {
        "Altitude(m)": 607886.6702192313,
        "Argument of Periapsis(deg)": 0.0,
        "Eccentricity": 0.0,
        "Inclination(deg)": 60.0,
        "Latitude(deg)": 40.99838615161497,
        "Longitude(deg)": -115.027006093164,
        "Mean Anomaly(deg)": -310.9091,
        "RAAN(deg)": 315.0,
        "Satellite Name": "Test1 1389",
        "Satellite Number": 1389,
        "Semi-Major Axis(m)": 6980739.136638005,
        "Time(s)": 0
    },
    {
        "Altitude(m)": 607987.5841614015,
        "Argument of Periapsis(deg)": 0.00010418945913296404,
        "Eccentricity": 0.0,
        "Inclination(deg)": 60.0,
        "Latitude(deg)": 41.4634760892927,
        "Longitude(deg)": -114.52277842896831,
        "Mean Anomaly(deg)": -310.28899385453815,
        "RAAN(deg)": 314.99957995086027,
        "Satellite Name": "Test1 1389",
        "Satellite Number": 1389,
        "Semi-Major Axis(m)": 6980739.136638005,
        "Time(s)": 10
    }
]